14-May-2025 11:20:08
1 47647U 21012AD  25133.91667824  .00833820  00000+0  10999-1 0  9993
2 47647  53.0535 330.6018 0001268  85.9289 275.9953 15.55416601  6123
